[{"OBJECT_NAME":"QIANFAN-38","OBJECT_ID":"2024-232C","EPOCH":"2026-03-09T21:27:26.483328","MEAN_MOTION":13.51004581,"ECCENTRICITY":0.00130592,"INCLINATION":89.0066,"RA_OF_ASC_NODE":32.4497,"ARG_OF_PERICENTER":310.0288,"MEAN_ANOMALY":49.9717,"EPHEMERIS_TYPE":0,"CLASSIFICATION_TYPE":"U","NORAD_CAT_ID":62239,"ELEMENT_SET_NO":999,"REV_AT_EPOCH":11099,"BSTAR":0.00013458284,"MEAN_MOTION_DOT":9.9e-7,"MEAN_MOTION_DDOT":0},{"OBJECT_NAME":"THORAD AGENA D DEB","OBJECT_ID":"1970-025AV","EPOCH":"2026-03-06T12:28:07.398048","MEAN_MOTION":13.5539117,"ECCENTRICITY":0.00378155,"INCLINATION":99.3932,"RA_OF_ASC_NODE":269.9581,"ARG_OF_PERICENTER":316.3148,"MEAN_ANOMALY":72.8843,"EPHEMERIS_TYPE":0,"CLASSIFICATION_TYPE":"U","NORAD_CAT_ID":4672,"ELEMENT_SET_NO":999,"REV_AT_EPOCH":75595,"BSTAR":0.0005281804,"MEAN_MOTION_DOT":3.26e-6,"MEAN_MOTION_DDOT":0}]
